{
    "links": {
        "self": "http://www.neowsapp.com/rest/v1/neo/3730576?api_key=iIulBulltgU6a56xZRHN4H3l9WmuAYTsLGpBGhQ2"
    },
    "id": "3730576",
    "neo_reference_id": "3730576",
    "name": "(2015 TU237)",
    "designation": "2015 TU237",
    "nasa_jpl_url": "http://ssd.jpl.nasa.gov/sbdb.cgi?sstr=3730576",
    "absolute_magnitude_h": 24.4,
    "estimated_diameter": {
        "kilometers": {
            "estimated_diameter_min": 0.0350392641,
            "estimated_diameter_max": 0.0783501764
        },
        "meters": {
            "estimated_diameter_min": 35.0392641108,
            "estimated_diameter_max": 78.3501764334
        },
        "miles": {
            "estimated_diameter_min": 0.0217723826,
            "estimated_diameter_max": 0.0486845275
        },
        "feet": {
            "estimated_diameter_min": 114.9582192654,
            "estimated_diameter_max": 257.0543928497
        }
    },
    "is_potentially_hazardous_asteroid": false,
    "close_approach_data": [
        {
            "close_approach_date": "2009-10-18",
            "close_approach_date_full": "2009-Oct-18 18:33",
            "epoch_date_close_approach": 1255890780000,
            "relative_velocity": {
                "kilometers_per_second": "26.4994290648",
                "kilometers_per_hour": "95397.9446333322",
                "miles_per_hour": "59276.5728750836"
            },
            "miss_distance": {
                "astronomical": "0.4387516037",
                "lunar": "170.6743738393",
                "kilometers": "65636305.372604119",
                "miles": "40784508.9557260822"
            },
            "orbiting_body": "Earth"
        },
        {
            "close_approach_date": "2012-10-07",
            "close_approach_date_full": "2012-Oct-07 11:25",
            "epoch_date_close_approach": 1349609100000,
            "relative_velocity": {
                "kilometers_per_second": "19.4076606376",
                "kilometers_per_hour": "69867.5782954536",
                "miles_per_hour": "43412.9960803056"
            },
            "miss_distance": {
                "astronomical": "0.2042087106",
                "lunar": "79.4371884234",
                "kilometers": "30549188.141206422",
                "miles": "18982385.2860437436"
            },
            "orbiting_body": "Earth"
        },
        {
            "close_approach_date": "2015-09-25",
            "close_approach_date_full": "2015-Sep-25 12:05",
            "epoch_date_close_approach": 1443182700000,
            "relative_velocity": {
                "kilometers_per_second": "12.5312887908",
                "kilometers_per_hour": "45112.6396470492",
                "miles_per_hour": "28031.2398962457"
            },
            "miss_distance": {
                "astronomical": "0.0289118254",
                "lunar": "11.2467000806",
                "kilometers": "4325147.497651898",
                "miles": "2687522.0329882724"
            },
            "orbiting_body": "Earth"
        },
        {
            "close_approach_date": "2032-03-18",
            "close_approach_date_full": "2032-Mar-18 08:19",
            "epoch_date_close_approach": 1963210740000,
            "relative_velocity": {
                "kilometers_per_second": "8.1589389728",
                "kilometers_per_hour": "29372.1803020297",
                "miles_per_hour": "18250.7305882251"
            },
            "miss_distance": {
                "astronomical": "0.0570882939",
                "lunar": "22.2073463271",
                "kilometers": "8540287.169373993",
                "miles": "5306688.3726393834"
            },
            "orbiting_body": "Mars"
        },
        {
            "close_approach_date": "2033-03-14",
            "close_approach_date_full": "2033-Mar-14 08:06",
            "epoch_date_close_approach": 1994400360000,
            "relative_velocity": {
                "kilometers_per_second": "26.4880858685",
                "kilometers_per_hour": "95357.1091266983",
                "miles_per_hour": "59251.1992793087"
            },
            "miss_distance": {
                "astronomical": "0.4378046172",
                "lunar": "170.3059960908",
                "kilometers": "65494638.209285364",
                "miles": "40696481.0623474632"
            },
            "orbiting_body": "Earth"
        }
    ],
    "orbital_data": {
        "orbit_id": "4",
        "orbit_determination_date": "2017-04-06 08:31:17",
        "first_observation_date": "2015-10-13",
        "last_observation_date": "2015-10-15",
        "data_arc_in_days": 2,
        "observations_used": 23,
        "orbit_uncertainty": "8",
        "minimum_orbit_intersection": ".00566209",
        "jupiter_tisserand_invariant": "4.903",
        "epoch_osculation": "2457309.5",
        "eccentricity": ".4411878720014266",
        "semi_major_axis": "1.298390925378349",
        "inclination": "2.396991721458671",
        "ascending_node_longitude": "356.0207246160332",
        "orbital_period": "540.3891667773946",
        "perihelion_distance": ".7255565959847122",
        "perihelion_argument": "283.4035806879355",
        "aphelion_distance": "1.871225254771986",
        "perihelion_time": "2457235.383532836791",
        "mean_anomaly": "49.37539428829163",
        "mean_motion": ".6661865598580675",
        "equinox": "J2000",
        "orbit_class": {
            "orbit_class_type": "APO",
            "orbit_class_description": "Near-Earth asteroid orbits which cross the Earth’s orbit similar to that of 1862 Apollo",
            "orbit_class_range": "a (semi-major axis) > 1.0 AU; q (perihelion) < 1.017 AU"
        }
    },
    "is_sentry_object": false
}